NORAD_CAT_ID,OBJECT_NAME,OBJECT_TYPE,EPOCH,MEAN_MOTION,ECCENTRICITY,INCLINATION,RA_OF_ASC_NODE,ARG_OF_PERICENTER,MEAN_ANOMALY,BSTAR,MEAN_MOTION_DOT,MEAN_MOTION_DDOT,TLE_LINE0,TLE_LINE1,TLE_LINE2,SEMIMAJOR_AXIS,PERIOD,APOGEE,PERIGEE,DECAYED
52678.0,STARLINK-4074,PAYLOAD,2022-12-02 01:18:17,15.08824933,0.0003013999999999,53.2174,102.5548,38.9012,321.2197,-5.107100000000001e-05,-1.101e-05,0.0,0 STARLINK-4074,1 52678U 22053Y   22336.05437033 -.00001101  00000-0 -51071-4 0  9994,2 52678  53.2174 102.5548 0003014  38.9012 321.2197 15.08824933 30548,6917.926,95.439,541.877,537.706,0.0
52678.0,STARLINK-4074,PAYLOAD,2022-12-02 10:50:35,15.08834772,0.0002287,53.2183,100.772,30.1188,329.9936,4.4585000000000014e-06,-2.17e-06,0.0,0 STARLINK-4074,1 52678U 22053Y   22336.45180199 -.00000217  00000-0  44585-5 0  9995,2 52678  53.2183 100.7720 0002287  30.1188 329.9936 15.08834772 31032,6917.896,95.438,541.3430000000002,538.179,0.0
52678.0,STARLINK-4074,PAYLOAD,2022-12-03 12:16:46,15.08837012,0.0002663,53.2181,96.0127,32.1324,327.983,2.0439e-05,3.7e-07,0.0,0 STARLINK-4074,1 52678U 22053Y   22337.51164653  .00000037  00000-0  20439-4 0  9990,2 52678  53.2181  96.0127 0002663  32.1324 327.9830 15.08837012 31198,6917.89,95.438,541.597,537.9119999999998,0.0
52678.0,STARLINK-4074,PAYLOAD,2022-12-03 15:27:32,15.08839295,0.000268,53.2182,95.4185,32.5424,327.5733,3.7507e-05,3.08e-06,0.0,0 STARLINK-4074,1 52678U 22053Y   22337.64412532  .00000308  00000-0  37507-4 0  9991,2 52678  53.2182  95.4185 0002680  32.5424 327.5733 15.08839295 30787,6917.8830000000025,95.438,541.602,537.894,0.0
52678.0,STARLINK-4074,PAYLOAD,2022-12-04 00:59:50,15.08845908,0.0002903,53.2184,93.6343,32.3141,327.8029,7.5689e-05,9.16e-06,0.0,0 STARLINK-4074,1 52678U 22053Y   22338.04156041  .00000916  00000-0  75689-4 0  9994,2 52678  53.2184  93.6343 0002903  32.3141 327.8029 15.08845908 30843,6917.861999999999,95.437,541.736,537.719,0.0
52678.0,STARLINK-4074,PAYLOAD,2022-12-04 08:56:47,15.08836697,0.0002664,53.2184,92.1473,33.6222,326.4939,7.0015e-05,8.26e-06,0.0,0 STARLINK-4074,1 52678U 22053Y   22338.37276833  .00000826  00000-0  70015-4 0  9990,2 52678  53.2184  92.1473 0002664  33.6222 326.4939 15.08836697 30894,6917.89,95.438,541.5980000000002,537.913,0.0
52678.0,STARLINK-4074,PAYLOAD,2022-12-04 16:53:42,15.08840061,0.0002561,53.218,90.6601,32.4169,327.6980000000001,7.7485e-05,9.45e-06,0.0,0 STARLINK-4074,1 52678U 22053Y   22338.70396603  .00000945  00000-0  77485-4 0  9995,2 52678  53.2180  90.6601 0002561  32.4169 327.6980 15.08840061 31372,6917.88,95.438,541.5169999999998,537.974,0.0
52678.0,STARLINK-4074,PAYLOAD,2022-12-05 00:50:37,15.08847261,0.0002541,53.2181,89.1735,31.7136,328.4008,0.00016653,2.364e-05,0.0,0 STARLINK-4074,1 52678U 22053Y   22339.03515884  .00002364  00000-0  16653-3 0  9992,2 52678  53.2181  89.1735 0002541  31.7136 328.4008 15.08847261 30994,6917.858,95.437,541.481,537.965,0.0
52678.0,STARLINK-4074,PAYLOAD,2022-12-05 13:33:42,15.08848044,0.000257,53.2182,86.7946,33.1388,326.9765,0.00015883,2.241e-05,0.0,0 STARLINK-4074,1 52678U 22053Y   22339.56507800  .00002241  00000-0  15883-3 0  9997,2 52678  53.2182  86.7946 0002570  33.1388 326.9765 15.08848044 31500,6917.856,95.437,541.499,537.943,0.0
52678.0,STARLINK-4074,PAYLOAD,2022-12-06 07:02:56,15.08851323,0.0002747,53.2176,83.5236,35.4776,324.6398,0.00018839,2.712e-05,0.0,0 STARLINK-4074,1 52678U 22053Y   22340.29371348  .00002712  00000-0  18839-3 0  9992,2 52678  53.2176  83.5236 0002747  35.4776 324.6398 15.08851323 31187,6917.846,95.437,541.611,537.81,0.0
52678.0,STARLINK-4074,PAYLOAD,2022-12-06 14:59:52,15.0884732,0.0003065,53.2176,82.0365,41.4365,318.6859,8.7543e-05,1.105e-05,0.0,0 STARLINK-4074,1 52678U 22053Y   22340.62491627  .00001105  00000-0  87543-4 0  9996,2 52678  53.2176  82.0365 0003065  41.4365 318.6859 15.08847320 31669,6917.858,95.437,541.8430000000002,537.6030000000002,0.0
52678.0,STARLINK-4074,PAYLOAD,2022-12-07 16:26:03,15.08837755,0.0002798,53.2169,77.2818,27.9074,332.2068,1.8951e-05,1.3e-07,0.0,0 STARLINK-4074,1 52678U 22053Y   22341.68476344  .00000013  00000-0  18951-4 0  9996,2 52678  53.2169  77.2818 0002798  27.9074 332.2068 15.08837755 31393,6917.887,95.438,541.688,537.817,0.0
52678.0,STARLINK-4074,PAYLOAD,2022-12-08 13:06:04,15.08832413,0.0002648,53.2181,73.4153,26.8288,333.284,4.4945e-05,4.27e-06,0.0,0 STARLINK-4074,1 52678U 22053Y   22342.54588834  .00000427  00000-0  44945-4 0  9991,2 52678  53.2181  73.4153 0002648  26.8288 333.2840 15.08832413 31953,6917.904,95.438,541.6,537.937,0.0
52678.0,STARLINK-4074,PAYLOAD,2022-12-08 16:16:51,15.08823472,0.0002796,53.2179,72.8224,27.6396,332.4745,2.440300000000001e-05,1e-06,0.0,0 STARLINK-4074,1 52678U 22053Y   22342.67837381  .00000100  00000-0  24403-4 0  9994,2 52678  53.2179  72.8224 0002796  27.6396 332.4745 15.08823472 31540,6917.931,95.439,541.73,537.862,0.0
52678.0,STARLINK-4074,PAYLOAD,2022-12-09 08:10:43,15.08827104,0.0002742,53.2186,69.8468,28.8225,331.2918,-2.4159e-05,-6.73e-06,0.0,0 STARLINK-4074,1 52678U 22053Y   22343.34078226 -.00000673  00000-0 -24159-4 0  9999,2 52678  53.2186  69.8468 0002742  28.8225 331.2918 15.08827104 32073,6917.92,95.438,541.682,537.888,0.0
52678.0,STARLINK-4074,PAYLOAD,2022-12-10 11:12:17,15.08830171,0.0002711,53.2192,64.7919,32.1985,327.9172,5.4024e-05,5.71e-06,0.0,0 STARLINK-4074,1 52678U 22053Y   22344.46686912  .00000571  00000-0  54024-4 0  9999,2 52678  53.2192  64.7919 0002711  32.1985 327.9172 15.08830171 31815,6917.91,95.438,541.651,537.9,0.0
52678.0,STARLINK-4074,PAYLOAD,2022-12-11 04:41:31,15.0884249,0.0002723,53.2192,61.5203,32.0015,328.1142,0.00027148,4.035e-05,0.0,0 STARLINK-4074,1 52678U 22053Y   22345.19550027  .00004035  00000-0  27148-3 0  9992,2 52678  53.2192  61.5203 0002723  32.0015 328.1142 15.08842490 31921,6917.873000000001,95.437,541.622,537.854,0.0
52678.0,STARLINK-4074,PAYLOAD,2022-12-11 12:38:27,15.08850823,0.0002954,53.2176,60.0331,29.5556,330.5603,0.00029371,4.391e-05,0.0,0 STARLINK-4074,1 52678U 22053Y   22345.52670218  .00004391  00000-0  29371-3 0  9999,2 52678  53.2176  60.0331 0002954  29.5556 330.5603 15.08850823 32408,6917.847,95.437,541.756,537.669,0.0
52678.0,STARLINK-4074,PAYLOAD,2022-12-12 09:18:26,15.08867034,0.0002774,53.2175,56.1669,23.8783,336.2337,-0.00052177,-8.590000000000001e-05,0.0,0 STARLINK-4074,1 52678U 22053Y   22346.38780898 -.00008590  00000-0 -52177-3 0  9997,2 52678  53.2175  56.1669 0002774  23.8783 336.2337 15.08867034 32102,6917.7980000000025,95.436,541.582,537.744,0.0
52678.0,STARLINK-4074,PAYLOAD,2022-12-12 12:29:14,15.08839429,0.0003028,53.2171,55.5722,24.7197,335.394,0.00023392,3.436e-05,0.0,0 STARLINK-4074,1 52678U 22053Y   22346.52030461  .00003436  00000-0  23392-3 0  9996,2 52678  53.2171  55.5722 0003028  24.7197 335.3940 15.08839429 32559,6917.882,95.438,541.842,537.6519999999998,0.0
52678.0,STARLINK-4074,PAYLOAD,2022-12-12 22:01:32,15.08853434,0.0002898,53.2171,53.788,25.4599,334.6536,9.7062e-05,1.257e-05,0.0,0 STARLINK-4074,1 52678U 22053Y   22346.91773392  .00001257  00000-0  97062-4 0  9991,2 52678  53.2171  53.7880 0002898  25.4599 334.6536 15.08853434 32186,6917.839,95.437,541.7090000000002,537.7,0.0
52678.0,STARLINK-4074,PAYLOAD,2022-12-13 12:20:00,15.08845378,0.0002862,53.2181,51.1126,23.7535,336.3589,-1.8564e-05,-5.84e-06,0.0,0 STARLINK-4074,1 52678U 22053Y   22347.51389416 -.00000584  00000-0 -18564-4 0  9992,2 52678  53.2181  51.1126 0002862  23.7535 336.3589 15.08845378 32707,6917.864000000001,95.437,541.7090000000002,537.749,0.0
52678.0,STARLINK-4074,PAYLOAD,2022-12-13 15:30:46,15.08846517,0.0002823,53.2188,50.5177,25.1473,334.9657,1.7701e-05,-7e-08,0.0,0 STARLINK-4074,1 52678U 22053Y   22347.64637562 -.00000007  00000-0  17701-4 0  9995,2 52678  53.2188  50.5177 0002823  25.1473 334.9657 15.08846517 32297,6917.86,95.437,541.678,537.773,0.0
52678.0,STARLINK-4074,PAYLOAD,2022-12-14 10:35:23,15.08846103,0.000289,53.2187,46.9496,23.4475,336.6648,8.460600000000001e-05,1.058e-05,0.0,0 STARLINK-4074,1 52678U 22053Y   22348.44124990  .00001058  00000-0  84606-4 0  9994,2 52678  53.2187  46.9496 0002890  23.4475 336.6648 15.08846103 32847,6917.861999999999,95.437,541.726,537.727,0.0
52678.0,STARLINK-4074,PAYLOAD,2022-12-14 13:46:10,15.08846572,0.0002962,53.2187,46.355,22.3326,337.7795,7.487e-05,9.03e-06,0.0,0 STARLINK-4074,1 52678U 22053Y   22348.57372926  .00000903  00000-0  74870-4 0  9992,2 52678  53.2187  46.3550 0002962  22.3326 337.7795 15.08846572 32862,6917.86,95.437,541.774,537.6759999999998,0.0
52678.0,STARLINK-4074,PAYLOAD,2022-12-15 04:04:38,15.08839059,0.0002983,53.2185,43.6791,22.9353,337.1772,-6.8937e-06,-3.98e-06,0.0,0 STARLINK-4074,1 52678U 22053Y   22349.16989483 -.00000398  00000-0 -68937-5 0  9998,2 52678  53.2185  43.6791 0002983  22.9353 337.1772 15.08839059 32520,6917.8830000000025,95.438,541.812,537.685,0.0
52678.0,STARLINK-4074,PAYLOAD,2022-12-15 13:36:57,15.08842862,0.0003025,53.2179,41.8938,20.498,339.6133,3.3148e-06,-2.36e-06,0.0,0 STARLINK-4074,1 52678U 22053Y   22349.56733143 -.00000236  00000-0  33148-5 0  9998,2 52678  53.2179  41.8938 0003025  20.4980 339.6133 15.08842862 33012,6917.871999999999,95.437,541.8290000000002,537.644,0.0
52678.0,STARLINK-4074,PAYLOAD,2022-12-16 10:16:58,15.08839652,0.0003038,53.2184,38.029,20.8346,339.277,1.2494e-05,-9.000000000000002e-07,0.0,0 STARLINK-4074,1 52678U 22053Y   22350.42845294 -.00000090  00000-0  12494-4 0  9994,2 52678  53.2184  38.0290 0003038  20.8346 339.2770 15.08839652 32713,6917.880999999999,95.438,541.8480000000002,537.645,0.0
52678.0,STARLINK-4074,PAYLOAD,2022-12-16 13:27:44,15.08836724,0.0003101,53.2179,37.4344,20.4562,339.6553,-2.9355e-06,-3.35e-06,0.0,0 STARLINK-4074,1 52678U 22053Y   22350.56093521 -.00000335  00000-0 -29355-5 0  9995,2 52678  53.2179  37.4344 0003101  20.4562 339.6553 15.08836724 33167,6917.89,95.438,541.901,537.61,0.0
